{
  "type": "FeatureCollection",
  "name": "Tadoba-Andhari_Tiger_Reserve_Zones",
  "crs": {
    "type": "name",
    "properties": {
      "name": "urn:ogc:def:crs:OGC:1.3:CRS84"
    }
  },
  "features": [
    {
      "type": "Feature",
      "properties": {
        "zone_id": "ZONE-TATR-CORE",
        "name": "Tadoba-Andhari Core Critical Tiger Habitat",
        "category": "core",
        "area_sq_km": 625.82,
        "human_entry_restricted": true,
        "speed_limit_kmh": 20
      },
      "geometry": {
        "type": "Polygon",
        "coordinates": [
          [
            [79.28, 20.25],
            [79.38, 20.25],
            [79.42, 20.35],
            [79.35, 20.40],
            [79.25, 20.36],
            [79.28, 20.25]
          ]
        ]
      }
    },
    {
      "type": "Feature",
      "properties": {
        "zone_id": "ZONE-TATR-BUFFER",
        "name": "Tadoba-Andhari Buffer Forest Division",
        "category": "buffer",
        "area_sq_km": 1101.78,
        "human_entry_restricted": false,
        "speed_limit_kmh": 40
      },
      "geometry": {
        "type": "Polygon",
        "coordinates": [
          [
            [79.20, 20.18],
            [79.48, 20.18],
            [79.52, 20.45],
            [79.30, 20.48],
            [79.18, 20.38],
            [79.20, 20.18]
          ]
        ]
      }
    }
  ]
}
